NOAA 15                 
1 25338U 98030A   23277.37730368  .00000302  00000+0  14370-3 0  9991
2 25338  98.5988 304.5343 0010246   1.5594 358.5616 14.26401885320827
DMSP 5D-3 F15 (USA 147) 
1 25991U 99067A   23276.96297786  .00000362  00000+0  20385-3 0  9992
2 25991  99.0741 282.3728 0009034 288.3049 130.4105 14.16808477230814
DMSP 5D-3 F16 (USA 172) 
1 28054U 03048A   23277.44048052  .00000336  00000+0  20132-3 0  9994
2 28054  99.0188 276.5854 0008258  62.1876  99.3019 14.13860733 29992
NOAA 18                 
1 28654U 05018A   23277.47015348  .00000361  00000+0  21719-3 0  9994
2 28654  98.9013 351.2925 0015170  72.7040 287.5791 14.13020303947004
METEOSAT-9 (MSG-2)      
1 28912U 05049B   23277.08837803  .00000120  00000+0  00000+0 0  9999
2 28912   7.0926  62.9136 0002385 177.7959 209.3510  1.00275024 65189
EWS-G1 (GOES 13)        
1 29155U 06018A   23277.16321747  .00000026  00000+0  00000+0 0  9995
2 29155   1.7839  89.9612 0005619 132.7832 270.3208  1.00277437 63613
DMSP 5D-3 F17 (USA 191) 
1 29522U 06050A   23277.39574063  .00000323  00000+0  19166-3 0  9992
2 29522  98.7540 288.2222 0009847 358.5874   1.5270 14.14302717872898
FENGYUN 3A              
1 32958U 08026A   23277.44228792  .00000331  00000+0  17902-3 0  9990
2 32958  98.5669 227.5033 0009923  92.7430 267.4882 14.18927737795559
FENGYUN 2E              
1 33463U 08066A   23276.87388139 -.00000209  00000+0  00000+0 0  9996
2 33463   6.9639  62.1948 0001377 221.9733 129.2245  1.00271848 54194
NOAA 19                 
1 33591U 09005A   23277.38679097  .00000298  00000+0  18503-3 0  9993
2 33591  99.0880 325.0020 0012943 297.3762  62.6092 14.12833651755369
GOES 14                 
1 35491U 09033A   23276.62886635 -.00000075  00000+0  00000+0 0  9992
2 35491   0.3609 264.9853 0003416 240.9551 343.9572  1.00271796 52259
DMSP 5D-3 F18 (USA 210) 
1 35951U 09057A   23277.54281316  .00000491  00000+0  28210-3 0  9994
2 35951  98.7810 251.8607 0011038 171.2777 188.8590 14.13867143720097
GOES 15                 
1 36411U 10008A   23277.03313354 -.00000208  00000+0  00000+0 0  9996
2 36411   0.3417 274.7147 0005457 316.8985 246.6028  0.99974746 49742
COMS 1                  
1 36744U 10032A   23276.96153281 -.00000352  00000+0  00000+0 0  9994
2 36744   2.2858  87.6619 0001105 133.6958 265.3532  1.00271253 48751
FENGYUN 3B              
1 37214U 10059A   23277.44060646  .00000161  00000+0  10771-3 0  9999
2 37214  99.0812 296.6451 0023226  97.6800  30.2492 14.14383248667957
SUOMI NPP               
1 37849U 11061A   23277.42981043  .00000235  00000+0  13186-3 0  9993
2 37849  98.7107 214.3148 0000881  61.0878  46.9219 14.19575140618435
FENGYUN 2F              
1 38049U 12002A   23276.88069039 -.00000363  00000+0  00000+0 0  9993
2 38049   4.9535  75.6369 0001828  98.8148 266.8359  1.00264613 42991
METEOSAT-10 (MSG-3)     
1 38552U 12035B   23277.36584403 -.00000018  00000+0  00000+0 0  9996
2 38552   2.3995  57.8674 0000306 187.5458 258.6378  1.00269718 41320
METOP-B                 
1 38771U 12049A   23277.47985024  .00000254  00000+0  13599-3 0  9992
2 38771  98.6667 334.9659 0001226  93.0402 329.2284 14.21504938573077
FENGYUN 3C              
1 39260U 13052A   23277.55128934  .00000223  00000+0  13357-3 0  9997
2 39260  98.4294 285.8497 0010914 353.9465   6.1577 14.16084566519003
METEOR-M 2              
1 40069U 14037A   23277.42616671  .00000193  00000+0  10867-3 0  9995
2 40069  98.4284 278.3475 0006396  34.8732 325.2864 14.20819855479163
HIMAWARI-8              
1 40267U 14060A   23277.39395233 -.00000284  00000+0  00000+0 0  9991
2 40267   0.0026 194.0498 0001024  39.8953  61.3625  1.00270985 32963
FENGYUN 2G              
1 40367U 14090A   23276.87792381 -.00000309  00000+0  00000+0 0  9990
2 40367   3.1289  84.4591 0001179 172.7362 170.8502  1.00266145 32139
METEOSAT-11 (MSG-4)     
1 40732U 15034A   23276.86624306  .00000053  00000+0  00000+0 0  9990
2 40732   0.7929  55.8491 0001544 231.5069  46.0110  1.00269323 30110
ELEKTRO-L 2             
1 41105U 15074A   23276.86154385 -.00000123  00000+0  00000+0 0  9993
2 41105   4.1816  82.5182 0003204 150.1719  75.2917  1.00271757 28609
HIMAWARI-9              
1 41836U 16064A   23276.87086975 -.00000283  00000+0  00000+0 0  9991
2 41836   0.0173 170.5073 0001188  46.0465 250.0420  1.00272189 25405
GOES 16                 
1 41866U 16071A   23276.84944771 -.00000257  00000+0  00000+0 0  9997
2 41866   0.0557 289.0939 0000959 317.0181 356.7778  1.00271864 25209
FENGYUN 4A              
1 41882U 16077A   23276.87918334 -.00000338  00000+0  00000+0 0  9990
2 41882   0.2118 286.2652 0004656  97.2178  49.8244  1.00275614 25085
CYGFM05                 
1 41884U 16078A   23276.99472808  .00010128  00000+0  43730-3 0  9995
2 41884  34.9530 122.4377 0013469  17.0468 343.0696 15.21660134376912
CYGFM04                 
1 41885U 16078B   23276.72914498  .00010279  00000+0  43454-3 0  9993
2 41885  34.9467 110.3741 0011799  37.0544 323.0983 15.22392930376840
CYGFM02                 
1 41886U 16078C   23276.25252405  .00010058  00000+0  42569-3 0  9996
2 41886  34.9551 115.7872 0012557  24.6778 335.4535 15.22350746376853
CYGFM01                 
1 41887U 16078D   23276.99719518  .00009716  00000+0  42255-3 0  9992
2 41887  34.9498 125.6605 0013864  15.9980 344.1169 15.21415954376872
CYGFM08                 
1 41888U 16078E   23276.81788816  .00010548  00000+0  45046-3 0  9997
2 41888  34.9477 116.9392 0012866  30.2652 329.8803 15.22031899376882
CYGFM07                 
1 41890U 16078G   23276.73483111  .00010145  00000+0  42788-3 0  9994
2 41890  34.9494 109.9248 0011385  34.3367 325.8081 15.22479075376852
CYGFM03                 
1 41891U 16078H   23276.82440061  .00009906  00000+0  42020-3 0  9994
2 41891  34.9522 110.3230 0010845  31.4198 328.7161 15.22294827376853
FENGYUN 3D              
1 43010U 17072A   23277.41312077  .00000265  00000+0  14776-3 0  9991
2 43010  98.8725 226.1037 0001873  27.4793 332.6481 14.19213385304990
NOAA 20                 
1 43013U 17073A   23277.44380421  .00000225  00000+0  12738-3 0  9998
2 43013  98.7185 214.1909 0001308 103.6817 256.4505 14.19571729304476
GOES 17                 
1 43226U 18022A   23277.39248645 -.00000100  00000+0  00000+0 0  9992
2 43226   0.0357 353.9933 0002027 196.6461 218.7831  1.00272886 20548
FENGYUN 2H              
1 43491U 18050A   23277.09507878 -.00000134  00000+0  00000+0 0  9997
2 43491   2.3533  89.4676 0003555 105.9861 290.3283  1.00268886 19610
METOP-C                 
1 43689U 18087A   23277.43430754  .00000246  00000+0  13270-3 0  9992
2 43689  98.7189 335.1497 0003842  98.5975 261.5638 14.21476241254640
GEO-KOMPSAT-2A          
1 43823U 18100A   23277.24818947 -.00000352  00000+0  00000+0 0  9993
2 43823   0.0468  39.4773 0001211 103.5669  87.2661  1.00271428 17764
METEOR-M2 2             
1 44387U 19038A   23277.44808863  .00000130  00000+0  76486-4 0  9997
2 44387  98.7897 241.1959 0001557  29.1013 331.0251 14.23810910220852
FENGYUN 3E              
1 49008U 21062A   23277.39317206  .00000066  00000+0  51799-4 0  9990
2 49008  98.7278 277.2302 0002554  66.8014 293.3431 14.19700470116554
GOES 18                 
1 51850U 22021A   23277.50081279  .00000088  00000+0  00000+0 0  9993
2 51850   0.0227  16.4302 0000439 201.3684 198.4298  1.00271188  5912
NOAA 21 (JPSS-2)        
1 54234U 22150A   23277.17786792  .00000240  00000+0  13460-3 0  9998
2 54234  98.7222 213.4451 0001629  89.8905 270.2458 14.19556367 46518
METEOSAT-12             
1 54743U 22170C   23276.86371941 -.00000041  00000+0  00000+0 0  9998
2 54743   0.5129 323.6835 0002030 212.0491 143.9687  1.00270194  3078
METEOR-M2 3             
1 57166U 23091A   23277.41623525  .00000046  00000+0  39674-4 0  9991
2 57166  98.7533 328.8829 0004659 142.3908 217.7597 14.23845867 14082
FENGYUN 3F              
1 57490U 23111A   23277.42507516  .00000181  00000+0  10637-3 0  9993
2 57490  98.8039 343.5203 0001918 100.7785 259.3607 14.19712139  8841
